{
  "type": "FeatureCollection",
  "features": [
    {
      "type": "Feature",
      "properties": {
        "norad_id": 34540,
        "name": "IRIDIUM 33 DEB",
        "group": "iridium-33-debris",
        "lat": -75.2124963807942,
        "lon": -71.20573770933409,
        "alt_km": 662.6828488569263,
        "timestamp": "2025-12-22T22:44:21.363694+00:00",
        "meta_object_name": "IRIDIUM 33 DEB",
        "meta_object_id": "1997-051JH",
        "meta_epoch": "2025-12-21T19:30:48.758976",
        "meta_mean_motion": 14.75487187,
        "meta_eccentricity": 0.00178055,
        "meta_inclination": 86.3115,
        "meta_ra_of_asc_node": 303.4575,
        "meta_arg_of_pericenter": 128.6543,
        "meta_mean_anomaly": 253.8683,
        "meta_ephemeris_type": 0,
        "meta_classification_type": "U",
        "meta_norad_cat_id": 34540,
        "meta_element_set_no": 999,
        "meta_rev_at_epoch": 89155,
        "meta_bstar": 0.0012465247,
        "meta_mean_motion_dot": 8.527e-05,
        "meta_mean_motion_ddot": 0,
        "tle_line1": "1 34540U 97051JH  25355.81306434  .00008527  00000+0  12465-2 0  9998",
        "tle_line2": "2 34540  86.3115 303.4575 0017805 128.6543 253.8683 14.75487187891554"
      },
      "geometry": {
        "type": "Point",
        "coordinates": [
          -71.20573770933409,
          -75.2124963807942
        ]
      }
    },
    {
      "type": "Feature",
      "properties": {
        "norad_id": 34648,
        "name": "IRIDIUM 33 DEB",
        "group": "iridium-33-debris",
        "lat": -69.97354800855817,
        "lon": 107.79572046138374,
        "alt_km": 735.9284511262895,
        "timestamp": "2025-12-22T22:44:21.363704+00:00",
        "meta_object_name": "IRIDIUM 33 DEB",
        "meta_object_id": "1997-051JZ",
        "meta_epoch": "2025-12-21T18:19:39.887904",
        "meta_mean_motion": 14.11736102,
        "meta_eccentricity": 0.01798232,
        "meta_inclination": 86.3908,
        "meta_ra_of_asc_node": 278.3021,
        "meta_arg_of_pericenter": 270.6006,
        "meta_mean_anomaly": 87.4576,
        "meta_ephemeris_type": 0,
        "meta_classification_type": "U",
        "meta_norad_cat_id": 34648,
        "meta_element_set_no": 999,
        "meta_rev_at_epoch": 85088,
        "meta_bstar": 0.0054657739,
        "meta_mean_motion_dot": 0.00011615,
        "meta_mean_motion_ddot": 0,
        "tle_line1": "1 34648U 97051JZ  25355.76365611  .00011615  00000+0  54658-2 0  9995",
        "tle_line2": "2 34648  86.3908 278.3021 0179823 270.6006  87.4576 14.11736102850887"
      },
      "geometry": {
        "type": "Point",
        "coordinates": [
          107.79572046138374,
          -69.97354800855817
        ]
      }
    },
    {
      "type": "Feature",
      "properties": {
        "norad_id": 34651,
        "name": "IRIDIUM 33 DEB",
        "group": "iridium-33-debris",
        "lat": 69.5446240065655,
        "lon": -53.80314945804893,
        "alt_km": 748.6362359539607,
        "timestamp": "2025-12-22T22:44:21.363715+00:00",
        "meta_object_name": "IRIDIUM 33 DEB",
        "meta_object_id": "1997-051KC",
        "meta_epoch": "2025-12-19T16:44:48.420096",
        "meta_mean_motion": 14.25922062,
        "meta_eccentricity": 0.01422464,
        "meta_inclination": 86.2827,
        "meta_ra_of_asc_node": 137.6175,
        "meta_arg_of_pericenter": 181.9677,
        "meta_mean_anomaly": 178.0974,
        "meta_ephemeris_type": 0,
        "meta_classification_type": "U",
        "meta_norad_cat_id": 34651,
        "meta_element_set_no": 999,
        "meta_rev_at_epoch": 85995,
        "meta_bstar": 0.0022061693,
        "meta_mean_motion_dot": 5.865e-05,
        "meta_mean_motion_ddot": 0,
        "tle_line1": "1 34651U 97051KC  25353.69778264  .00005865  00000+0  22062-2 0  9995",
        "tle_line2": "2 34651  86.2827 137.6175 0142246 181.9677 178.0974 14.25922062859957"
      },
      "geometry": {
        "type": "Point",
        "coordinates": [
          -53.80314945804893,
          69.5446240065655
        ]
      }
    },
    {
      "type": "Feature",
      "properties": {
        "norad_id": 34652,
        "name": "IRIDIUM 33 DEB",
        "group": "iridium-33-debris",
        "lat": 51.09515428858557,
        "lon": -19.9841827409713,
        "alt_km": 697.2415946807687,
        "timestamp": "2025-12-22T22:44:21.363742+00:00",
        "meta_object_name": "IRIDIUM 33 DEB",
        "meta_object_id": "1997-051KD",
        "meta_epoch": "2025-12-21T05:29:24.538272",
        "meta_mean_motion": 14.62128423,
        "meta_eccentricity": 0.0025487,
        "meta_inclination": 86.3314,
        "meta_ra_of_asc_node": 336.221,
        "meta_arg_of_pericenter": 267.1492,
        "meta_mean_anomaly": 103.1146,
        "meta_ephemeris_type": 0,
        "meta_classification_type": "U",
        "meta_norad_cat_id": 34652,
        "meta_element_set_no": 999,
        "meta_rev_at_epoch": 88608,
        "meta_bstar": 0.00068722,
        "meta_mean_motion_dot": 3.491e-05,
        "meta_mean_motion_ddot": 0,
        "tle_line1": "1 34652U 97051KD  25355.22875623  .00003491  00000+0  68722-3 0  9991",
        "tle_line2": "2 34652  86.3314 336.2210 0025487 267.1492 103.1146 14.62128423886080"
      },
      "geometry": {
        "type": "Point",
        "coordinates": [
          -19.9841827409713,
          51.09515428858557
        ]
      }
    },
    {
      "type": "Feature",
      "properties": {
        "norad_id": 34690,
        "name": "IRIDIUM 33 DEB",
        "group": "iridium-33-debris",
        "lat": 17.430572117504656,
        "lon": 33.69409505184613,
        "alt_km": 703.1124613321499,
        "timestamp": "2025-12-22T22:44:21.363754+00:00",
        "meta_object_name": "IRIDIUM 33 DEB",
        "meta_object_id": "1997-051KM",
        "meta_epoch": "2025-12-22T08:23:45.204864",
        "meta_mean_motion": 14.55129058,
        "meta_eccentricity": 0.00097229,
        "meta_inclination": 86.3773,
        "meta_ra_of_asc_node": 32.8141,
        "meta_arg_of_pericenter": 357.524,
        "meta_mean_anomaly": 131.3072,
        "meta_ephemeris_type": 0,
        "meta_classification_type": "U",
        "meta_norad_cat_id": 34690,
        "meta_element_set_no": 999,
        "meta_rev_at_epoch": 88234,
        "meta_bstar": 0.00039013292,
        "meta_mean_motion_dot": 1.706e-05,
        "meta_mean_motion_ddot": 0,
        "tle_line1": "1 34690U 97051KM  25356.34982876  .00001706  00000+0  39013-3 0  9994",
        "tle_line2": "2 34690  86.3773  32.8141 0009722 357.5240 131.3072 14.55129058882345"
      },
      "geometry": {
        "type": "Point",
        "coordinates": [
          33.69409505184613,
          17.430572117504656
        ]
      }
    },
    {
      "type": "Feature",
      "properties": {
        "norad_id": 34693,
        "name": "IRIDIUM 33 DEB",
        "group": "iridium-33-debris",
        "lat": -80.94546093997877,
        "lon": 142.66752186845807,
        "alt_km": 487.25912660578797,
        "timestamp": "2025-12-22T22:44:21.363765+00:00",
        "meta_object_name": "IRIDIUM 33 DEB",
        "meta_object_id": "1997-051KQ",
        "meta_epoch": "2025-12-21T20:43:11.978976",
        "meta_mean_motion": 15.30009716,
        "meta_eccentricity": 0.00110937,
        "meta_inclination": 86.3051,
        "meta_ra_of_asc_node": 299.2844,
        "meta_arg_of_pericenter": 36.8807,
        "meta_mean_anomaly": 16.9571,
        "meta_ephemeris_type": 0,
        "meta_classification_type": "U",
        "meta_norad_cat_id": 34693,
        "meta_element_set_no": 999,
        "meta_rev_at_epoch": 89054,
        "meta_bstar": 0.0049985621,
        "meta_mean_motion_dot": 0.00148002,
        "meta_mean_motion_ddot": 0,
        "tle_line1": "1 34693U 97051KQ  25355.86333309  .00148002  00000+0  49986-2 0  9994",
        "tle_line2": "2 34693  86.3051 299.2844 0011093  36.8807  16.9571 15.30009716890541"
      },
      "geometry": {
        "type": "Point",
        "coordinates": [
          142.66752186845807,
          -80.94546093997877
        ]
      }
    },
    {
      "type": "Feature",
      "properties": {
        "norad_id": 34696,
        "name": "IRIDIUM 33 DEB",
        "group": "iridium-33-debris",
        "lat": 7.962551887862709,
        "lon": -157.76383698926216,
        "alt_km": 636.4682483745864,
        "timestamp": "2025-12-22T22:44:21.363776+00:00",
        "meta_object_name": "IRIDIUM 33 DEB",
        "meta_object_id": "1997-051KT",
        "meta_epoch": "2025-12-22T12:49:05.985120",
        "meta_mean_motion": 14.65530105,
        "meta_eccentricity": 0.00739958,
        "meta_inclination": 86.183,
        "meta_ra_of_asc_node": 22.9637,
        "meta_arg_of_pericenter": 134.5199,
        "meta_mean_anomaly": 17.3354,
        "meta_ephemeris_type": 0,
        "meta_classification_type": "U",
        "meta_norad_cat_id": 34696,
        "meta_element_set_no": 999,
        "meta_rev_at_epoch": 86816,
        "meta_bstar": 0.0048858102,
        "meta_mean_motion_dot": 0.00027681,
        "meta_mean_motion_ddot": 0,
        "tle_line1": "1 34696U 97051KT  25356.53409705  .00027681  00000+0  48858-2 0  9992",
        "tle_line2": "2 34696  86.1830  22.9637 0073995 134.5199  17.3354 14.65530105868162"
      },
      "geometry": {
        "type": "Point",
        "coordinates": [
          -157.76383698926216,
          7.962551887862709
        ]
      }
    }
  ]
}